start=new Date('2022-04-25T00:00:00.000Z').valueOf();
sats=[{"PERIAPSIS":"546.089","MEAN_MOTION_DDOT":"0.0000000000000","ELEMENT_SET_NO":"999","REF_FRAME":"TEME","RCS_SIZE":"LARGE","CENTER_NAME":"EARTH","ARG_OF_PERICENTER":"67.1348","NORAD_CAT_ID":"48138","GP_ID":"201935643","BSTAR":"0.00014275000000","COUNTRY_CODE":"US","MEAN_ANOMALY":"292.9811","INCLINATION":"53.0551","CLASSIFICATION_TYPE":"U","MEAN_MOTION_DOT":"0.00001845","APOAPSIS":"548.333","MEAN_ELEMENT_THEORY":"SGP4","EPOCH":"2022-04-24T06:29:41.365824","OBJECT_NAME":"STARLINK-2481","OBJECT_TYPE":"PAYLOAD","SEMIMAJOR_AXIS":"6925.346","RA_OF_ASC_NODE":"45.6937","FILE":"3414186","TLE_LINE1":"1 48138U 21027AY  22114.27061766  .00001845  00000-0  14275-3 0  9991","TIME_SYSTEM":"UTC","PERIOD":"95.592","MEAN_MOTION":"15.06400789","SITE":"AFETR","ECCENTRICITY":"0.00016200","TLE_LINE2":"2 48138  53.0551  45.6937 0001620  67.1348 292.9811 15.06400789 59081","OBJECT_ID":"2021-027AY","LAUNCH_DATE":"2021-04-07","EPHEMERIS_TYPE":"0","DECAY_DATE":null,"REV_AT_EPOCH":"5908"},{"PERIOD":"95.592","TIME_SYSTEM":"UTC","RA_OF_ASC_NODE":"24.5336","FILE":"3414186","TLE_LINE1":"1 48139U 21027AZ  22114.52679424 -.00000920  00000-0 -42848-4 0  9999","OBJECT_TYPE":"PAYLOAD","SEMIMAJOR_AXIS":"6925.363","LAUNCH_DATE":"2021-04-07","EPHEMERIS_TYPE":"0","DECAY_DATE":null,"REV_AT_EPOCH":"5940","TLE_LINE2":"2 48139  53.0562  24.5336 0001795  66.9978 293.1200 15.06395395 59409","OBJECT_ID":"2021-027AZ","ECCENTRICITY":"0.00017950","MEAN_MOTION":"15.06395395","SITE":"AFETR","ARG_OF_PERICENTER":"66.9978","NORAD_CAT_ID":"48139","GP_ID":"201934891","BSTAR":"-0.00004284800000","REF_FRAME":"TEME","RCS_SIZE":"LARGE","CENTER_NAME":"EARTH","PERIAPSIS":"545.985","ELEMENT_SET_NO":"999","MEAN_MOTION_DDOT":"0.0000000000000","EPOCH":"2022-04-24T12:38:35.022336","MEAN_ELEMENT_THEORY":"SGP4","OBJECT_NAME":"STARLINK-2482","MEAN_MOTION_DOT":"-0.00000920","APOAPSIS":"548.471","CLASSIFICATION_TYPE":"U","MEAN_ANOMALY":"293.1200","COUNTRY_CODE":"US","INCLINATION":"53.0562"},{"OBJECT_NAME":"STARLINK-2483","MEAN_ELEMENT_THEORY":"SGP4","EPOCH":"2022-04-24T11:52:06.235968","APOAPSIS":"548.374","MEAN_MOTION_DOT":"-0.00000135","CLASSIFICATION_TYPE":"U","INCLINATION":"53.0576","COUNTRY_CODE":"US","MEAN_ANOMALY":"299.6724","BSTAR":"0.00000987240000","GP_ID":"201935141","NORAD_CAT_ID":"48140","ARG_OF_PERICENTER":"60.4431","CENTER_NAME":"EARTH","RCS_SIZE":"LARGE","REF_FRAME":"TEME","MEAN_MOTION_DDOT":"0.0000000000000","ELEMENT_SET_NO":"999","PERIAPSIS":"546.059","DECAY_DATE":null,"REV_AT_EPOCH":"5911","LAUNCH_DATE":"2021-04-07","EPHEMERIS_TYPE":"0","TLE_LINE2":"2 48140  53.0576  44.6887 0001671  60.4431 299.6724 15.06399082 59113","OBJECT_ID":"2021-027BA","ECCENTRICITY":"0.00016710","MEAN_MOTION":"15.06399082","SITE":"AFETR","PERIOD":"95.592","TIME_SYSTEM":"UTC","FILE":"3414186","TLE_LINE1":"1 48140U 21027BA  22114.49451662 -.00000135  00000-0  98724-5 0  9991","RA_OF_ASC_NODE":"44.6887","SEMIMAJOR_AXIS":"6925.351","OBJECT_TYPE":"PAYLOAD"},{"APOAPSIS":"548.387","MEAN_MOTION_DOT":"0.00002413","OBJECT_NAME":"STARLINK-2484","EPOCH":"2022-04-24T12:25:18.420384","MEAN_ELEMENT_THEORY":"SGP4","INCLINATION":"53.0538","COUNTRY_CODE":"US","MEAN_ANOMALY":"304.4052","CLASSIFICATION_TYPE":"U","RCS_SIZE":"LARGE","CENTER_NAME":"EARTH","REF_FRAME":"TEME","GP_ID":"201935393","BSTAR":"0.00018084000000","ARG_OF_PERICENTER":"55.7097","NORAD_CAT_ID":"48141","ELEMENT_SET_NO":"999","MEAN_MOTION_DDOT":"0.0000000000000","PERIAPSIS":"546.041","OBJECT_ID":"2021-027BB","TLE_LINE2":"2 48141  53.0538  44.5728 0001694  55.7097 304.4052 15.06399793 59135","REV_AT_EPOCH":"5913","DECAY_DATE":null,"LAUNCH_DATE":"2021-04-07","EPHEMERIS_TYPE":"0","SITE":"AFETR","MEAN_MOTION":"15.06399793","ECCENTRICITY":"0.00016940","TIME_SYSTEM":"UTC","PERIOD":"95.592","SEMIMAJOR_AXIS":"6925.349","OBJECT_TYPE":"PAYLOAD","TLE_LINE1":"1 48141U 21027BB  22114.51757431  .00002413  00000-0  18084-3 0  9997","FILE":"3414186","RA_OF_ASC_NODE":"44.5728"},{"CLASSIFICATION_TYPE":"U","INCLINATION":"53.0565","MEAN_ANOMALY":"306.2082","COUNTRY_CODE":"US","OBJECT_NAME":"STARLINK-2485","EPOCH":"2022-04-24T18:55:26.596128","MEAN_ELEMENT_THEORY":"SGP4","APOAPSIS":"548.461","MEAN_MOTION_DOT":"0.00003040","ELEMENT_SET_NO":"999","MEAN_MOTION_DDOT":"0.0000000000000","PERIAPSIS":"546.012","BSTAR":"0.00022292000000","GP_ID":"201944125","ARG_OF_PERICENTER":"53.9071","NORAD_CAT_ID":"48142","CENTER_NAME":"EARTH","RCS_SIZE":"LARGE","REF_FRAME":"TEME","ECCENTRICITY":"0.00017680","SITE":"AFETR","MEAN_MOTION":"15.06392594","REV_AT_EPOCH":"5904","DECAY_DATE":null,"LAUNCH_DATE":"2021-04-07","EPHEMERIS_TYPE":"0","OBJECT_ID":"2021-027BC","TLE_LINE2":"2 48142  53.0565  23.3657 0001768  53.9071 306.2082 15.06392594 59041","TLE_LINE1":"1 48142U 21027BC  22114.78850227  .00003040  00000-0  22292-3 0  9997","FILE":"3414428","RA_OF_ASC_NODE":"23.3657","SEMIMAJOR_AXIS":"6925.371","OBJECT_TYPE":"PAYLOAD","PERIOD":"95.593","TIME_SYSTEM":"UTC"},{"MEAN_MOTION_DOT":"0.00001112","APOAPSIS":"548.196","EPOCH":"2022-04-24T15:19:46.095744","MEAN_ELEMENT_THEORY":"SGP4","OBJECT_NAME":"STARLINK-2486","COUNTRY_CODE":"US","MEAN_ANOMALY":"288.7064","INCLINATION":"53.0535","CLASSIFICATION_TYPE":"U","REF_FRAME":"TEME","RCS_SIZE":"LARGE","CENTER_NAME":"EARTH","NORAD_CAT_ID":"48143","ARG_OF_PERICENTER":"71.4079","BSTAR":"0.00009354000000","GP_ID":"201944192","PERIAPSIS":"546.230","ELEMENT_SET_NO":"999","MEAN_MOTION_DDOT":"0.0000000000000","TLE_LINE2":"2 48143  53.0535 339.0385 0001419  71.4079 288.7064 15.06400126 59641","OBJECT_ID":"2021-027BD","LAUNCH_DATE":"2021-04-07","EPHEMERIS_TYPE":"0","DECAY_DATE":null,"REV_AT_EPOCH":"5964","MEAN_MOTION":"15.06400126","SITE":"AFETR","ECCENTRICITY":"0.00014190","TIME_SYSTEM":"UTC","PERIOD":"95.592","OBJECT_TYPE":"PAYLOAD","SEMIMAJOR_AXIS":"6925.348","RA_OF_ASC_NODE":"339.0385","FILE":"3414432","TLE_LINE1":"1 48143U 21027BD  22114.63872796  .00001112  00000-0  93540-4 0  9990"},{"CLASSIFICATION_TYPE":"U","INCLINATION":"53.0564","MEAN_ANOMALY":"268.8936","COUNTRY_CODE":"US","OBJECT_NAME":"STARLINK-2487","EPOCH":"2022-04-24T11:08:22.153056","MEAN_ELEMENT_THEORY":"SGP4","APOAPSIS":"548.242","MEAN_MOTION_DOT":"-0.00000240","ELEMENT_SET_NO":"999","MEAN_MOTION_DDOT":"0.0000000000000","PERIAPSIS":"546.264","BSTAR":"0.00000280450000","GP_ID":"201934642","ARG_OF_PERICENTER":"91.2217","NORAD_CAT_ID":"48144","CENTER_NAME":"EARTH","RCS_SIZE":"LARGE","REF_FRAME":"TEME","ECCENTRICITY":"0.00014280","MEAN_MOTION":"15.06387011","SITE":"AFETR","DECAY_DATE":null,"REV_AT_EPOCH":"5938","LAUNCH_DATE":"2021-04-07","EPHEMERIS_TYPE":"0","TLE_LINE2":"2 48144  53.0564  24.8169 0001428  91.2217 268.8936 15.06387011 59382","OBJECT_ID":"2021-027BE","FILE":"3414186","TLE_LINE1":"1 48144U 21027BE  22114.46414529 -.00000240  00000-0  28045-5 0  9999","RA_OF_ASC_NODE":"24.8169","SEMIMAJOR_AXIS":"6925.388","OBJECT_TYPE":"PAYLOAD","PERIOD":"95.593","TIME_SYSTEM":"UTC"},{"EPOCH":"2022-04-24T11:13:39.166752","MEAN_ELEMENT_THEORY":"SGP4","OBJECT_NAME":"STARLINK-2488","MEAN_MOTION_DOT":"0.00000304","APOAPSIS":"548.329","CLASSIFICATION_TYPE":"U","COUNTRY_CODE":"US","MEAN_ANOMALY":"299.1825","INCLINATION":"53.0574","NORAD_CAT_ID":"48145","ARG_OF_PERICENTER":"60.9327","BSTAR":"0.00003929900000","GP_ID":"201935893","REF_FRAME":"TEME","CENTER_NAME":"EARTH","RCS_SIZE":"MEDIUM","PERIAPSIS":"546.080","ELEMENT_SET_NO":"999","MEAN_MOTION_DDOT":"0.0000000000000","LAUNCH_DATE":"2021-04-07","EPHEMERIS_TYPE":"0","DECAY_DATE":null,"REV_AT_EPOCH":"5939","TLE_LINE2":"2 48145  53.0574  24.7989 0001624  60.9327 299.1825 15.06403054 59397","OBJECT_ID":"2021-027BF","ECCENTRICITY":"0.00016240","MEAN_MOTION":"15.06403054","SITE":"AFETR","PERIOD":"95.592","TIME_SYSTEM":"UTC","RA_OF_ASC_NODE":"24.7989","FILE":"3414186","TLE_LINE1":"1 48145U 21027BF  22114.46781443  .00000304  00000-0  39299-4 0  9994","OBJECT_TYPE":"PAYLOAD","SEMIMAJOR_AXIS":"6925.339"},{"ECCENTRICITY":"0.00014410","MEAN_MOTION":"15.06396201","SITE":"AFETR","DECAY_DATE":null,"REV_AT_EPOCH":"5876","EPHEMERIS_TYPE":"0","LAUNCH_DATE":"2021-04-07","TLE_LINE2":"2 48146  53.0541  43.3277 0001441  71.5689 288.5457 15.06396201 58763","OBJECT_ID":"2021-027BG","FILE":"3414494","TLE_LINE1":"1 48146U 21027BG  22114.79770808  .00002255  00000-0  17024-3 0  9992","RA_OF_ASC_NODE":"43.3277","SEMIMAJOR_AXIS":"6925.360","OBJECT_TYPE":"PAYLOAD","PERIOD":"95.592","TIME_SYSTEM":"UTC","CLASSIFICATION_TYPE":"U","INCLINATION":"53.0541","COUNTRY_CODE":"US","MEAN_ANOMALY":"288.5457","OBJECT_NAME":"STARLINK-2489","EPOCH":"2022-04-24T19:08:41.978112","MEAN_ELEMENT_THEORY":"SGP4","APOAPSIS":"548.223","MEAN_MOTION_DOT":"0.00002255","MEAN_MOTION_DDOT":"0.0000000000000","ELEMENT_SET_NO":"999","PERIAPSIS":"546.227","GP_ID":"201944197","BSTAR":"0.00017024000000","NORAD_CAT_ID":"48146","ARG_OF_PERICENTER":"71.5689","CENTER_NAME":"EARTH","RCS_SIZE":"LARGE","REF_FRAME":"TEME"},{"TLE_LINE1":"1 48147U 21027BH  22114.53001657  .00000390  00000-0  45098-4 0  9995","FILE":"3414494","RA_OF_ASC_NODE":"49.5239","SEMIMAJOR_AXIS":"6925.344","OBJECT_TYPE":"PAYLOAD","PERIOD":"95.592","TIME_SYSTEM":"UTC","ECCENTRICITY":"0.00015520","SITE":"AFETR","MEAN_MOTION":"15.06401630","REV_AT_EPOCH":"5865","DECAY_DATE":null,"LAUNCH_DATE":"2021-04-07","EPHEMERIS_TYPE":"0","OBJECT_ID":"2021-027BH","TLE_LINE2":"2 48147  53.0576  49.5239 0001552  54.6943 305.4191 15.06401630 58651","ELEMENT_SET_NO":"999","MEAN_MOTION_DDOT":"0.0000000000000","PERIAPSIS":"546.134","BSTAR":"0.00004509800000","GP_ID":"201944199","ARG_OF_PERICENTER":"54.6943","NORAD_CAT_ID":"48147","RCS_SIZE":"LARGE","CENTER_NAME":"EARTH","REF_FRAME":"TEME","CLASSIFICATION_TYPE":"U","INCLINATION":"53.0576","MEAN_ANOMALY":"305.4191","COUNTRY_CODE":"US","OBJECT_NAME":"STARLINK-2490","MEAN_ELEMENT_THEORY":"SGP4","EPOCH":"2022-04-24T12:43:13.431648","APOAPSIS":"548.283","MEAN_MOTION_DOT":"0.00000390"}];
